<?xml version="1.0" encoding="UTF-8"?>
<ndm xmlns:xsi="http://www.w3.org/2001/XMLSchema-instance" xsi:noNamespaceSchemaLocation="https://sanaregistry.org/r/ndmxml_unqualified/ndmxml-2.0.0-master-2.0.xsd">
<omm id="CCSDS_OMM_VERS" version="2.0">
<header><CREATION_DATE/><ORIGINATOR/></header><body><segment><metadata><OBJECT_NAME>ONEWEB-0680</OBJECT_NAME><OBJECT_ID>2023-068G</OBJECT_ID><CENTER_NAME>EARTH</CENTER_NAME><REF_FRAME>TEME</REF_FRAME><TIME_SYSTEM>UTC</TIME_SYSTEM><MEAN_ELEMENT_THEORY>SGP4</MEAN_ELEMENT_THEORY></metadata><data><meanElements><EPOCH>2025-06-03T03:51:55.576224</EPOCH><MEAN_MOTION>13.21826352</MEAN_MOTION><ECCENTRICITY>.0002364</ECCENTRICITY><INCLINATION>87.9225</INCLINATION><RA_OF_ASC_NODE>319.5657</RA_OF_ASC_NODE><ARG_OF_PERICENTER>83.2805</ARG_OF_PERICENTER><MEAN_ANOMALY>276.8598</MEAN_ANOMALY></meanElements><tleParameters><EPHEMERIS_TYPE>0</EPHEMERIS_TYPE><CLASSIFICATION_TYPE>U</CLASSIFICATION_TYPE><NORAD_CAT_ID>56716</NORAD_CAT_ID><ELEMENT_SET_NO>999</ELEMENT_SET_NO><REV_AT_EPOCH>10172</REV_AT_EPOCH><BSTAR>.25626E-3</BSTAR><MEAN_MOTION_DOT>.119E-5</MEAN_MOTION_DOT><MEAN_MOTION_DDOT>0</MEAN_MOTION_DDOT></tleParameters></data></segment></body></omm>
<omm id="CCSDS_OMM_VERS" version="2.0">
<header><CREATION_DATE/><ORIGINATOR/></header><body><segment><metadata><OBJECT_NAME>ONEWEB-0681</OBJECT_NAME><OBJECT_ID>2023-068H</OBJECT_ID><CENTER_NAME>EARTH</CENTER_NAME><REF_FRAME>TEME</REF_FRAME><TIME_SYSTEM>UTC</TIME_SYSTEM><MEAN_ELEMENT_THEORY>SGP4</MEAN_ELEMENT_THEORY></metadata><data><meanElements><EPOCH>2025-06-03T04:06:40.115232</EPOCH><MEAN_MOTION>13.21823998</MEAN_MOTION><ECCENTRICITY>.0001192</ECCENTRICITY><INCLINATION>87.9247</INCLINATION><RA_OF_ASC_NODE>319.5862</RA_OF_ASC_NODE><ARG_OF_PERICENTER>65.9129</ARG_OF_PERICENTER><MEAN_ANOMALY>294.2130</MEAN_ANOMALY></meanElements><tleParameters><EPHEMERIS_TYPE>0</EPHEMERIS_TYPE><CLASSIFICATION_TYPE>U</CLASSIFICATION_TYPE><NORAD_CAT_ID>56717</NORAD_CAT_ID><ELEMENT_SET_NO>999</ELEMENT_SET_NO><REV_AT_EPOCH>10171</REV_AT_EPOCH><BSTAR>.86768E-4</BSTAR><MEAN_MOTION_DOT>.49E-6</MEAN_MOTION_DOT><MEAN_MOTION_DDOT>0</MEAN_MOTION_DDOT></tleParameters></data></segment></body></omm>
<omm id="CCSDS_OMM_VERS" version="2.0">
<header><CREATION_DATE/><ORIGINATOR/></header><body><segment><metadata><OBJECT_NAME>ONEWEB-0682</OBJECT_NAME><OBJECT_ID>2023-068J</OBJECT_ID><CENTER_NAME>EARTH</CENTER_NAME><REF_FRAME>TEME</REF_FRAME><TIME_SYSTEM>UTC</TIME_SYSTEM><MEAN_ELEMENT_THEORY>SGP4</MEAN_ELEMENT_THEORY></metadata><data><meanElements><EPOCH>2025-06-02T12:11:25.640160</EPOCH><MEAN_MOTION>13.15550619</MEAN_MOTION><ECCENTRICITY>.0002173</ECCENTRICITY><INCLINATION>87.9047</INCLINATION><RA_OF_ASC_NODE>334.8918</RA_OF_ASC_NODE><ARG_OF_PERICENTER>80.2230</ARG_OF_PERICENTER><MEAN_ANOMALY>279.9146</MEAN_ANOMALY></meanElements><tleParameters><EPHEMERIS_TYPE>0</EPHEMERIS_TYPE><CLASSIFICATION_TYPE>U</CLASSIFICATION_TYPE><NORAD_CAT_ID>56718</NORAD_CAT_ID><ELEMENT_SET_NO>999</ELEMENT_SET_NO><REV_AT_EPOCH>10023</REV_AT_EPOCH><BSTAR>.22581E-3</BSTAR><MEAN_MOTION_DOT>.98E-6</MEAN_MOTION_DOT><MEAN_MOTION_DDOT>0</MEAN_MOTION_DDOT></tleParameters></data></segment></body></omm>
<omm id="CCSDS_OMM_VERS" version="2.0">
<header><CREATION_DATE/><ORIGINATOR/></header><body><segment><metadata><OBJECT_NAME>ONEWEB-0683</OBJECT_NAME><OBJECT_ID>2023-068K</OBJECT_ID><CENTER_NAME>EARTH</CENTER_NAME><REF_FRAME>TEME</REF_FRAME><TIME_SYSTEM>UTC</TIME_SYSTEM><MEAN_ELEMENT_THEORY>SGP4</MEAN_ELEMENT_THEORY></metadata><data><meanElements><EPOCH>2025-06-02T01:45:08.080416</EPOCH><MEAN_MOTION>13.15549115</MEAN_MOTION><ECCENTRICITY>.0002085</ECCENTRICITY><INCLINATION>87.9045</INCLINATION><RA_OF_ASC_NODE>334.9491</RA_OF_ASC_NODE><ARG_OF_PERICENTER>86.7359</ARG_OF_PERICENTER><MEAN_ANOMALY>273.4009</MEAN_ANOMALY></meanElements><tleParameters><EPHEMERIS_TYPE>0</EPHEMERIS_TYPE><CLASSIFICATION_TYPE>U</CLASSIFICATION_TYPE><NORAD_CAT_ID>56719</NORAD_CAT_ID><ELEMENT_SET_NO>999</ELEMENT_SET_NO><REV_AT_EPOCH>10014</REV_AT_EPOCH><BSTAR>-.31579E-3</BSTAR><MEAN_MOTION_DOT>-.106E-5</MEAN_MOTION_DOT><MEAN_MOTION_DDOT>0</MEAN_MOTION_DDOT></tleParameters></data></segment></body></omm>
<omm id="CCSDS_OMM_VERS" version="2.0">
<header><CREATION_DATE/><ORIGINATOR/></header><body><segment><metadata><OBJECT_NAME>ONEWEB-0684</OBJECT_NAME><OBJECT_ID>2023-068L</OBJECT_ID><CENTER_NAME>EARTH</CENTER_NAME><REF_FRAME>TEME</REF_FRAME><TIME_SYSTEM>UTC</TIME_SYSTEM><MEAN_ELEMENT_THEORY>SGP4</MEAN_ELEMENT_THEORY></metadata><data><meanElements><EPOCH>2025-06-03T01:40:18.448608</EPOCH><MEAN_MOTION>13.15549781</MEAN_MOTION><ECCENTRICITY>.0002428</ECCENTRICITY><INCLINATION>87.9020</INCLINATION><RA_OF_ASC_NODE>334.7730</RA_OF_ASC_NODE><ARG_OF_PERICENTER>128.2851</ARG_OF_PERICENTER><MEAN_ANOMALY>231.8498</MEAN_ANOMALY></meanElements><tleParameters><EPHEMERIS_TYPE>0</EPHEMERIS_TYPE><CLASSIFICATION_TYPE>U</CLASSIFICATION_TYPE><NORAD_CAT_ID>56720</NORAD_CAT_ID><ELEMENT_SET_NO>999</ELEMENT_SET_NO><REV_AT_EPOCH>10010</REV_AT_EPOCH><BSTAR>-.20647E-3</BSTAR><MEAN_MOTION_DOT>-.65E-6</MEAN_MOTION_DOT><MEAN_MOTION_DDOT>0</MEAN_MOTION_DDOT></tleParameters></data></segment></body></omm>
<omm id="CCSDS_OMM_VERS" version="2.0">
<header><CREATION_DATE/><ORIGINATOR/></header><body><segment><metadata><OBJECT_NAME>ONEWEB-0686</OBJECT_NAME><OBJECT_ID>2023-068M</OBJECT_ID><CENTER_NAME>EARTH</CENTER_NAME><REF_FRAME>TEME</REF_FRAME><TIME_SYSTEM>UTC</TIME_SYSTEM><MEAN_ELEMENT_THEORY>SGP4</MEAN_ELEMENT_THEORY></metadata><data><meanElements><EPOCH>2025-06-03T04:06:01.862496</EPOCH><MEAN_MOTION>13.16596314</MEAN_MOTION><ECCENTRICITY>.0002129</ECCENTRICITY><INCLINATION>87.9022</INCLINATION><RA_OF_ASC_NODE>304.3524</RA_OF_ASC_NODE><ARG_OF_PERICENTER>98.6939</ARG_OF_PERICENTER><MEAN_ANOMALY>261.4434</MEAN_ANOMALY></meanElements><tleParameters><EPHEMERIS_TYPE>0</EPHEMERIS_TYPE><CLASSIFICATION_TYPE>U</CLASSIFICATION_TYPE><NORAD_CAT_ID>56721</NORAD_CAT_ID><ELEMENT_SET_NO>999</ELEMENT_SET_NO><REV_AT_EPOCH>10254</REV_AT_EPOCH><BSTAR>.20741E-3</BSTAR><MEAN_MOTION_DOT>.92E-6</MEAN_MOTION_DOT><MEAN_MOTION_DDOT>0</MEAN_MOTION_DDOT></tleParameters></data></segment></body></omm>
<omm id="CCSDS_OMM_VERS" version="2.0">
<header><CREATION_DATE/><ORIGINATOR/></header><body><segment><metadata><OBJECT_NAME>ONEWEB-0694</OBJECT_NAME><OBJECT_ID>2023-068N</OBJECT_ID><CENTER_NAME>EARTH</CENTER_NAME><REF_FRAME>TEME</REF_FRAME><TIME_SYSTEM>UTC</TIME_SYSTEM><MEAN_ELEMENT_THEORY>SGP4</MEAN_ELEMENT_THEORY></metadata><data><meanElements><EPOCH>2025-06-03T03:18:07.632576</EPOCH><MEAN_MOTION>13.16595658</MEAN_MOTION><ECCENTRICITY>.0002135</ECCENTRICITY><INCLINATION>87.9028</INCLINATION><RA_OF_ASC_NODE>304.2768</RA_OF_ASC_NODE><ARG_OF_PERICENTER>88.1857</ARG_OF_PERICENTER><MEAN_ANOMALY>271.9519</MEAN_ANOMALY></meanElements><tleParameters><EPHEMERIS_TYPE>0</EPHEMERIS_TYPE><CLASSIFICATION_TYPE>U</CLASSIFICATION_TYPE><NORAD_CAT_ID>56722</NORAD_CAT_ID><ELEMENT_SET_NO>999</ELEMENT_SET_NO><REV_AT_EPOCH>10259</REV_AT_EPOCH><BSTAR>-.3593E-4</BSTAR><MEAN_MOTION_DOT>-.1E-7</MEAN_MOTION_DOT><MEAN_MOTION_DDOT>0</MEAN_MOTION_DDOT></tleParameters></data></segment></body></omm>
<omm id="CCSDS_OMM_VERS" version="2.0">
<header><CREATION_DATE/><ORIGINATOR/></header><body><segment><metadata><OBJECT_NAME>ONEWEB-0696</OBJECT_NAME><OBJECT_ID>2023-068P</OBJECT_ID><CENTER_NAME>EARTH</CENTER_NAME><REF_FRAME>TEME</REF_FRAME><TIME_SYSTEM>UTC</TIME_SYSTEM><MEAN_ELEMENT_THEORY>SGP4</MEAN_ELEMENT_THEORY></metadata><data><meanElements><EPOCH>2025-06-02T00:54:55.413504</EPOCH><MEAN_MOTION>13.15549187</MEAN_MOTION><ECCENTRICITY>.0001663</ECCENTRICITY><INCLINATION>87.9046</INCLINATION><RA_OF_ASC_NODE>335.0089</RA_OF_ASC_NODE><ARG_OF_PERICENTER>101.1360</ARG_OF_PERICENTER><MEAN_ANOMALY>258.9958</MEAN_ANOMALY></meanElements><tleParameters><EPHEMERIS_TYPE>0</EPHEMERIS_TYPE><CLASSIFICATION_TYPE>U</CLASSIFICATION_TYPE><NORAD_CAT_ID>56723</NORAD_CAT_ID><ELEMENT_SET_NO>999</ELEMENT_SET_NO><REV_AT_EPOCH>10008</REV_AT_EPOCH><BSTAR>.37589E-3</BSTAR><MEAN_MOTION_DOT>.154E-5</MEAN_MOTION_DOT><MEAN_MOTION_DDOT>0</MEAN_MOTION_DDOT></tleParameters></data></segment></body></omm>
<omm id="CCSDS_OMM_VERS" version="2.0">
<header><CREATION_DATE/><ORIGINATOR/></header><body><segment><metadata><OBJECT_NAME>ONEWEB-0703</OBJECT_NAME><OBJECT_ID>2023-068Q</OBJECT_ID><CENTER_NAME>EARTH</CENTER_NAME><REF_FRAME>TEME</REF_FRAME><TIME_SYSTEM>UTC</TIME_SYSTEM><MEAN_ELEMENT_THEORY>SGP4</MEAN_ELEMENT_THEORY></metadata><data><meanElements><EPOCH>2025-06-02T17:34:18.575616</EPOCH><MEAN_MOTION>13.15547931</MEAN_MOTION><ECCENTRICITY>.0000969</ECCENTRICITY><INCLINATION>87.9030</INCLINATION><RA_OF_ASC_NODE>334.8708</RA_OF_ASC_NODE><ARG_OF_PERICENTER>125.9644</ARG_OF_PERICENTER><MEAN_ANOMALY>234.1576</MEAN_ANOMALY></meanElements><tleParameters><EPHEMERIS_TYPE>0</EPHEMERIS_TYPE><CLASSIFICATION_TYPE>U</CLASSIFICATION_TYPE><NORAD_CAT_ID>56724</NORAD_CAT_ID><ELEMENT_SET_NO>999</ELEMENT_SET_NO><REV_AT_EPOCH>10006</REV_AT_EPOCH><BSTAR>.40966E-3</BSTAR><MEAN_MOTION_DOT>.167E-5</MEAN_MOTION_DOT><MEAN_MOTION_DDOT>0</MEAN_MOTION_DDOT></tleParameters></data></segment></body></omm>

</ndm>
